IRIDIUM 119             
1 42959U 17061E   25267.72725282  .00000051  00000+0  11194-4 0  9996
2 42959  86.3982 136.2476 0002203  92.0724 268.0724 14.34218125416761
IRIDIUM 107             
1 42960U 17061F   25267.95558704 -.00000058  00000+0 -27912-4 0  9990
2 42960  86.3984 136.1715 0002482  87.2004 272.9476 14.34217546416805
IRIDIUM 132             
1 42961U 17061G   25267.33401213  .00000159  00000+0  49566-4 0  9994
2 42961  86.3983 136.4128 0002245  85.3909 274.7543 14.34218803416718
IRIDIUM 136             
1 42962U 17061H   25267.57502725  .00000339  00000+0  11385-3 0  9998
2 42962  86.3983 136.3174 0002273  89.3344 270.8112 14.34220692416760
IRIDIUM 139             
1 42963U 17061J   25267.72091016  .00000115  00000+0  34074-4 0  9995
2 42963  86.3985 136.3142 0002310  85.1964 274.9495 14.34218553416797
IRIDIUM 125             
1 42964U 17061K   25267.56868609  .00000048  00000+0  10209-4 0  9997
2 42964  86.3988 136.4340 0002506  94.8879 265.2603 14.34219986416785
IRIDIUM 135             
1 43070U 17083A   25267.96142288  .00000048  00000+0  99849-5 0  9990
2 43070  86.3916  72.8811 0001930  86.4714 273.6703 14.34217880406139
IRIDIUM 138             
1 43071U 17083B   25267.84725727  .00000007  00000+0 -47101-5 0  9993
2 43071  86.3907  72.5867 0002081 104.2340 255.9087 14.34217768406100
